NORAD_CAT_ID,OBJECT_NAME,OBJECT_TYPE,EPOCH,MEAN_MOTION,ECCENTRICITY,INCLINATION,RA_OF_ASC_NODE,ARG_OF_PERICENTER,MEAN_ANOMALY,BSTAR,MEAN_MOTION_DOT,MEAN_MOTION_DDOT,TLE_LINE0,TLE_LINE1,TLE_LINE2,SEMIMAJOR_AXIS,PERIOD,APOGEE,PERIGEE,DECAYED
52538.0,STARLINK-3933,PAYLOAD,2023-04-25 14:02:34,15.0880201,0.0001603,53.2131,158.7309,101.7114,258.4058,0.00062466,9.657e-05,0.0,0 STARLINK-3933,1 52538U 22051F   23115.58512127  .00009657  00000-0  62466-3 0  9990,2 52538  53.2131 158.7309 0001603 101.7114 258.4058 15.08802010 53069,6917.997,95.44,540.97,538.753,0.0
52538.0,STARLINK-3933,PAYLOAD,2023-04-26 09:07:13,15.08818579,0.0001645,53.2151,155.1607,102.1955,257.9222,0.00058125,8.969e-05,0.0,0 STARLINK-3933,1 52538U 22051F   23116.38001458  .00008969  00000-0  58125-3 0  9991,2 52538  53.2151 155.1607 0001645 102.1955 257.9222 15.08818579 53184,6917.946,95.439,540.949,538.673,0.0
52538.0,STARLINK-3933,PAYLOAD,2023-04-26 13:53:22,15.08824905,0.0001646,53.215,154.2686,102.6166,257.501,0.0006006,9.28e-05,0.0,0 STARLINK-3933,1 52538U 22051F   23116.57873609  .00009280  00000-0  60060-3 0  9995,2 52538  53.2150 154.2686 0001646 102.6166 257.5010 15.08824905 53215,6917.927,95.439,540.93,538.653,0.0
52538.0,STARLINK-3933,PAYLOAD,2023-04-27 10:33:23,15.08852319,0.0001611,53.2155,150.4027,104.0852,256.0319,0.00085824,0.00013402,0.0,0 STARLINK-3933,1 52538U 22051F   23117.43985443  .00013402  00000-0  85824-3 0  9997,2 52538  53.2155 150.4027 0001611 104.0852 256.0319 15.08852319 53347,6917.843,95.437,540.822,538.593,0.0
52538.0,STARLINK-3933,PAYLOAD,2023-04-28 08:48:46,15.08871267,0.000162,53.2163,146.2412,106.6151,253.5019,0.00060872,9.421e-05,0.0,0 STARLINK-3933,1 52538U 22051F   23118.36719995  .00009421  00000-0  60872-3 0  9999,2 52538  53.2163 146.2412 0001620 106.6151 253.5019 15.08871267 53484,6917.785,95.436,540.771,538.529,0.0
52538.0,STARLINK-3933,PAYLOAD,2023-04-28 18:21:04,15.08864661,0.0001573,53.2158,144.4574,104.4168,255.6999,0.00025876,3.835e-05,0.0,0 STARLINK-3933,1 52538U 22051F   23118.76463571  .00003835  00000-0  25876-3 0  9997,2 52538  53.2158 144.4574 0001573 104.4168 255.6999 15.08864661 53613,6917.805,95.436,540.758,538.582,0.0
52538.0,STARLINK-3933,PAYLOAD,2023-04-29 11:50:18,15.08848612,0.0001416,53.2162,141.1878,105.6891,254.4257,-3.2473e-05,-8.05e-06,0.0,0 STARLINK-3933,1 52538U 22051F   23119.49327448 -.00000805  00000-0 -32473-4 0  9998,2 52538  53.2162 141.1878 0001416 105.6891 254.4257 15.08848612 53657,6917.854,95.437,540.699,538.739,0.0
52538.0,STARLINK-3933,PAYLOAD,2023-04-30 02:08:47,15.08840814,0.0001354,53.2166,138.5114,110.4796,249.6342,0.00010101,1.32e-05,0.0,0 STARLINK-3933,1 52538U 22051F   23120.08943643  .00001320  00000-0  10101-3 0  9990,2 52538  53.2166 138.5114 0001354 110.4796 249.6342 15.08840814 53818,6917.878,95.438,540.68,538.806,0.0
52538.0,STARLINK-3933,PAYLOAD,2023-04-30 13:16:29,15.0884898,0.0001292,53.2154,136.4277,113.2508,246.862,0.00014221,1.977e-05,0.0,0 STARLINK-3933,1 52538U 22051F   23120.55311353  .00001977  00000-0  14221-3 0  9994,2 52538  53.2154 136.4277 0001292 113.2508 246.8620 15.08848980 53815,6917.853,95.437,540.612,538.824,0.0
52538.0,STARLINK-3933,PAYLOAD,2023-05-01 05:10:20,15.08836375,0.000139,53.2158,133.4526,103.067,257.0477,2.8565e-05,1.67e-06,0.0,0 STARLINK-3933,1 52538U 22051F   23121.21551858  .00000167  00000-0  28565-4 0  9991,2 52538  53.2158 133.4526 0001390 103.0670 257.0477 15.08836375 53986,6917.891,95.438,540.718,538.795,0.0
52538.0,STARLINK-3933,PAYLOAD,2023-05-01 09:56:30,15.08836113,0.0001374,53.217,132.5603,96.2916,263.8232,2.709e-05,1.43e-06,0.0,0 STARLINK-3933,1 52538U 22051F   23121.41424059  .00000143  00000-0  27090-4 0  9991,2 52538  53.2170 132.5603 0001374  96.2916 263.8232 15.08836113 53944,6917.892,95.438,540.708,538.807,0.0
52538.0,STARLINK-3933,PAYLOAD,2023-05-02 06:36:31,15.08837697,0.0001392,53.2164,128.6959,93.4441,266.6711,7.6406e-05,9.28e-06,0.0,0 STARLINK-3933,1 52538U 22051F   23122.27536337  .00000928  00000-0  76406-4 0  9995,2 52538  53.2164 128.6959 0001392  93.4441 266.6711 15.08837697 54143,6917.887,95.438,540.715,538.789,0.0
52538.0,STARLINK-3933,PAYLOAD,2023-05-02 08:11:54,15.08839594,0.0001321,53.2174,128.3987,92.3476,267.7667,8.9268e-05,1.133e-05,0.0,0 STARLINK-3933,1 52538U 22051F   23122.34160375  .00001133  00000-0  89268-4 0  9997,2 52538  53.2174 128.3987 0001321  92.3476 267.7667 15.08839594 54083,6917.882,95.438,540.66,538.833,0.0
52538.0,STARLINK-3933,PAYLOAD,2023-05-03 09:38:04,15.08840138,0.0001359,53.2153,123.6397,100.1705,259.9441,0.00022302,3.263e-05,0.0,0 STARLINK-3933,1 52538U 22051F   23123.40144411  .00003263  00000-0  22302-3 0  9999,2 52538  53.2153 123.6397 0001359 100.1705 259.9441 15.08840138 54312,6917.88,95.438,540.685,538.805,0.0
52538.0,STARLINK-3933,PAYLOAD,2023-05-04 09:28:51,15.08844092,0.0001374,53.2152,119.1792,98.1843,261.9305,0.0001477,2.064e-05,0.0,0 STARLINK-3933,1 52538U 22051F   23124.39504249  .00002064  00000-0  14770-3 0  9995,2 52538  53.2152 119.1792 0001374  98.1843 261.9305 15.08844092 54399,6917.868,95.437,540.683,538.782,0.0
52538.0,STARLINK-3933,PAYLOAD,2023-05-04 23:47:19,15.08843813,0.0001353,53.2148,116.5025,98.535,261.5795,0.00010213,1.338e-05,0.0,0 STARLINK-3933,1 52538U 22051F   23124.99120183  .00001338  00000-0  10213-3 0  9993,2 52538  53.2148 116.5025 0001353  98.5350 261.5795 15.08843813 54555,6917.869,95.437,540.67,538.798,0.0
52538.0,STARLINK-3933,PAYLOAD,2023-05-05 09:19:38,15.08846391,0.0001276,53.2161,114.7188,98.0128,262.1009,9.4359e-05,1.214e-05,0.0,0 STARLINK-3933,1 52538U 22051F   23125.38863822  .00001214  00000-0  94359-4 0  9998,2 52538  53.2161 114.7188 0001276  98.0128 262.1009 15.08846391 54540,6917.861,95.437,540.609,538.843,0.0
52538.0,STARLINK-3933,PAYLOAD,2023-05-05 23:38:07,15.08836391,0.0001329,53.2163,112.0426,98.0563,262.058,1.1181e-05,-1.1e-06,0.0,0 STARLINK-3933,1 52538U 22051F   23125.98480685 -.00000110  00000-0  11181-4 0  9993,2 52538  53.2163 112.0426 0001329  98.0563 262.0580 15.08836391 54700,6917.891,95.438,540.676,538.837,0.0
52538.0,STARLINK-3933,PAYLOAD,2023-05-06 15:31:58,15.08841689,0.0001254,53.2164,109.0692,95.7237,264.3898,5.4072e-05,5.73e-06,0.0,0 STARLINK-3933,1 52538U 22051F   23126.64720361  .00000573  00000-0  54072-4 0  9993,2 52538  53.2164 109.0692 0001254  95.7237 264.3898 15.08841689 54737,6917.875,95.437,540.608,538.873,0.0
52538.0,STARLINK-3933,PAYLOAD,2023-05-07 02:39:39,15.08848819,0.0001214,53.2164,106.9876,95.8607,264.2524,9.3658e-05,1.203e-05,0.0,0 STARLINK-3933,1 52538U 22051F   23127.11087706  .00001203  00000-0  93658-4 0  9999,2 52538  53.2164 106.9876 0001214  95.8607 264.2524 15.08848819 54877,6917.853,95.437,540.558,538.879,0.0
52538.0,STARLINK-3933,PAYLOAD,2023-05-07 05:50:25,15.08851104,0.0001211,53.2163,106.3929,95.8768,264.2362,0.00011325,1.515e-05,0.0,0 STARLINK-3933,1 52538U 22051F   23127.24335473  .00001515  00000-0  11325-3 0  9996,2 52538  53.2163 106.3929 0001211  95.8768 264.2362 15.08851104 54820,6917.846,95.437,540.549,538.874,0.0
52538.0,STARLINK-3933,PAYLOAD,2023-05-07 15:22:45,15.0884118,0.0001097,53.2164,104.6086,90.7371,269.3747,2.7671e-05,1.53e-06,0.0,0 STARLINK-3933,1 52538U 22051F   23127.64080267  .00000153  00000-0  27671-4 0  9997,2 52538  53.2164 104.6086 0001097  90.7371 269.3747 15.08841180 54952,6917.877,95.437,540.501,538.983,0.0
52538.0,STARLINK-3933,PAYLOAD,2023-05-08 04:05:51,15.08824363,0.0001166,53.2168,102.2299,88.8509,271.2617,-1.2826e-05,-4.92e-06,0.0,0 STARLINK-3933,1 52538U 22051F   23128.17073788 -.00000492  00000-0 -12826-4 0  9990,2 52538  53.2168 102.2299 0001166  88.8509 271.2617 15.08824363 55036,6917.928,95.439,540.6,538.987,0.0
52538.0,STARLINK-3933,PAYLOAD,2023-05-08 15:13:33,15.08836252,0.0001161,53.2168,100.1486,89.8948,270.2177,4.2336e-05,3.86e-06,0.0,0 STARLINK-3933,1 52538U 22051F   23128.63441073  .00000386  00000-0  42336-4 0  9996,2 52538  53.2168 100.1486 0001161  89.8948 270.2177 15.08836252 55034,6917.892,95.438,540.56,538.954,0.0
52538.0,STARLINK-3933,PAYLOAD,2023-05-09 05:32:00,15.08837157,0.0001373,53.2186,97.4743,95.3709,264.744,0.00029006,4.331e-05,0.0,0 STARLINK-3933,1 52538U 22051F   23129.23056231  .00004331  00000-0  29006-3 0  9993,2 52538  53.2186  97.4743 0001373  95.3709 264.7440 15.08837157 55193,6917.889,95.438,540.704,538.804,0.0
52538.0,STARLINK-3933,PAYLOAD,2023-05-10 03:47:25,15.08832565,0.0001128,53.2185,93.3092,90.1879,269.9243,0.00012904,1.766e-05,0.0,0 STARLINK-3933,1 52538U 22051F   23130.15793278  .00001766  00000-0  12904-3 0  9993,2 52538  53.2185  93.3092 0001128  90.1879 269.9243 15.08832565 55267,6917.903,95.438,540.548,538.988,0.0
52538.0,STARLINK-3933,PAYLOAD,2023-05-11 03:38:11,15.08848361,0.0001065,53.2175,88.8497,86.7619,273.3495,7.4672e-05,9.01e-06,0.0,0 STARLINK-3933,1 52538U 22051F   23131.15152457  .00000901  00000-0  74672-4 0  9993,2 52538  53.2175  88.8497 0001065  86.7619 273.3495 15.08848361 55413,6917.855,95.437,540.457,538.983,0.0
52538.0,STARLINK-3933,PAYLOAD,2023-05-12 03:28:59,15.08837047,0.0001069,53.2172,84.3903,67.7126,292.398,3.5822e-05,2.82e-06,0.0,0 STARLINK-3933,1 52538U 22051F   23132.14513521  .00000282  00000-0  35822-4 0  9992,2 52538  53.2172  84.3903 0001069  67.7126 292.3980 15.08837047 55632,6917.889,95.438,540.494,539.015,0.0
52538.0,STARLINK-3933,PAYLOAD,2023-05-13 03:19:45,15.08833695,0.0001129,53.2179,79.9278,86.3984,273.7138,0.00043975,6.716e-05,0.0,0 STARLINK-3933,1 52538U 22051F   23133.13872683  .00006716  00000-0  43975-3 0  9994,2 52538  53.2179  79.9278 0001129  86.3984 273.7138 15.08833695 55789,6917.9,95.438,540.546,538.984,0.0
52538.0,STARLINK-3933,PAYLOAD,2023-05-13 06:30:31,15.08870475,0.0001233,53.218,79.3325,74.2222,285.8906,-8.8097e-06,-4.28e-06,0.0,0 STARLINK-3933,1 52538U 22051F   23133.27119469 -.00000428  00000-0 -88097-5 0  9997,2 52538  53.2180  79.3325 0001233  74.2222 285.8906 15.08870475 55802,6917.787,95.436,540.505,538.799,0.0
